CCSDS_OMM_VERS = 2.0
CREATION_DATE  = 
ORIGINATOR     = 

OBJECT_NAME    = STARLINK-37027
OBJECT_ID      = 2026-054A
CENTER_NAME    = EARTH
REF_FRAME      = TEME
TIME_SYSTEM    = UTC
MEAN_ELEMENT_THEORY = SGP/SGP4

EPOCH          = 2026-04-03T14:51:26.251776
MEAN_MOTION    = 15.75220280
ECCENTRICITY   = .0000911
INCLINATION    = 53.1600
RA_OF_ASC_NODE = 187.9550
ARG_OF_PERICENTER = 104.3714
MEAN_ANOMALY   = 255.7407

EPHEMERIS_TYPE = 0
CLASSIFICATION_TYPE = U
NORAD_CAT_ID   = 68232
ELEMENT_SET_NO = 999
REV_AT_EPOCH   = 271
BSTAR          = .13004E-2
MEAN_MOTION_DOT = .2034E-2
MEAN_MOTION_DDOT = 0

CCSDS_OMM_VERS = 2.0
CREATION_DATE  = 
ORIGINATOR     = 

OBJECT_NAME    = STARLINK-37132
OBJECT_ID      = 2026-054B
CENTER_NAME    = EARTH
REF_FRAME      = TEME
TIME_SYSTEM    = UTC
MEAN_ELEMENT_THEORY = SGP/SGP4

EPOCH          = 2026-04-03T15:54:51.826176
MEAN_MOTION    = 15.80887613
ECCENTRICITY   = .0001316
INCLINATION    = 53.1588
RA_OF_ASC_NODE = 187.5100
ARG_OF_PERICENTER = 122.4248
MEAN_ANOMALY   = 237.6902

EPHEMERIS_TYPE = 0
CLASSIFICATION_TYPE = U
NORAD_CAT_ID   = 68233
ELEMENT_SET_NO = 999
REV_AT_EPOCH   = 272
BSTAR          = .15977E-2
MEAN_MOTION_DOT = .327094E-2
MEAN_MOTION_DDOT = 0

CCSDS_OMM_VERS = 2.0
CREATION_DATE  = 
ORIGINATOR     = 

OBJECT_NAME    = STARLINK-37101
OBJECT_ID      = 2026-054C
CENTER_NAME    = EARTH
REF_FRAME      = TEME
TIME_SYSTEM    = UTC
MEAN_ELEMENT_THEORY = SGP/SGP4

EPOCH          = 2026-04-03T20:00:01.999008
MEAN_MOTION    = 15.75284417
ECCENTRICITY   = .0001391
INCLINATION    = 53.1592
RA_OF_ASC_NODE = 186.7887
ARG_OF_PERICENTER = 68.3734
MEAN_ANOMALY   = 117.3399

EPHEMERIS_TYPE = 0
CLASSIFICATION_TYPE = U
NORAD_CAT_ID   = 68234
ELEMENT_SET_NO = 999
REV_AT_EPOCH   = 395
BSTAR          = -.14668E-3
MEAN_MOTION_DOT = -.23108E-3
MEAN_MOTION_DDOT = 0

CCSDS_OMM_VERS = 2.0
CREATION_DATE  = 
ORIGINATOR     = 

OBJECT_NAME    = STARLINK-36963
OBJECT_ID      = 2026-054D
CENTER_NAME    = EARTH
REF_FRAME      = TEME
TIME_SYSTEM    = UTC
MEAN_ELEMENT_THEORY = SGP/SGP4

EPOCH          = 2026-04-03T16:16:44.433120
MEAN_MOTION    = 15.75219713
ECCENTRICITY   = .0001148
INCLINATION    = 53.1599
RA_OF_ASC_NODE = 187.6117
ARG_OF_PERICENTER = 123.3471
MEAN_ANOMALY   = 236.7660

EPHEMERIS_TYPE = 0
CLASSIFICATION_TYPE = U
NORAD_CAT_ID   = 68235
ELEMENT_SET_NO = 999
REV_AT_EPOCH   = 272
BSTAR          = .12888E-2
MEAN_MOTION_DOT = .201522E-2
MEAN_MOTION_DDOT = 0

CCSDS_OMM_VERS = 2.0
CREATION_DATE  = 
ORIGINATOR     = 

OBJECT_NAME    = STARLINK-37127
OBJECT_ID      = 2026-054E
CENTER_NAME    = EARTH
REF_FRAME      = TEME
TIME_SYSTEM    = UTC
MEAN_ELEMENT_THEORY = SGP/SGP4

EPOCH          = 2026-04-03T16:29:48.770592
MEAN_MOTION    = 15.75218517
ECCENTRICITY   = .0001276
INCLINATION    = 53.1593
RA_OF_ASC_NODE = 187.6715
ARG_OF_PERICENTER = 93.5904
MEAN_ANOMALY   = 266.5263

EPHEMERIS_TYPE = 0
CLASSIFICATION_TYPE = U
NORAD_CAT_ID   = 68236
ELEMENT_SET_NO = 999
REV_AT_EPOCH   = 272
BSTAR          = .1431E-2
MEAN_MOTION_DOT = .22444E-2
MEAN_MOTION_DDOT = 0

CCSDS_OMM_VERS = 2.0
CREATION_DATE  = 
ORIGINATOR     = 

OBJECT_NAME    = STARLINK-37095
OBJECT_ID      = 2026-054F
CENTER_NAME    = EARTH
REF_FRAME      = TEME
TIME_SYSTEM    = UTC
MEAN_ELEMENT_THEORY = SGP/SGP4

EPOCH          = 2026-04-03T14:51:54.444096
MEAN_MOTION    = 15.75211220
ECCENTRICITY   = .0001177
INCLINATION    = 53.1600
RA_OF_ASC_NODE = 187.9567
ARG_OF_PERICENTER = 112.7970
MEAN_ANOMALY   = 247.3175

EPHEMERIS_TYPE = 0
CLASSIFICATION_TYPE = U
NORAD_CAT_ID   = 68237
ELEMENT_SET_NO = 999
REV_AT_EPOCH   = 271
BSTAR          = .12145E-2
MEAN_MOTION_DOT = .189527E-2
MEAN_MOTION_DDOT = 0

CCSDS_OMM_VERS = 2.0
CREATION_DATE  = 
ORIGINATOR     = 

OBJECT_NAME    = STARLINK-37097
OBJECT_ID      = 2026-054G
CENTER_NAME    = EARTH
REF_FRAME      = TEME
TIME_SYSTEM    = UTC
MEAN_ELEMENT_THEORY = SGP/SGP4

EPOCH          = 2026-04-03T15:49:27.706080
MEAN_MOTION    = 15.80875191
ECCENTRICITY   = .0001078
INCLINATION    = 53.1583
RA_OF_ASC_NODE = 187.4849
ARG_OF_PERICENTER = 84.2073
MEAN_ANOMALY   = 275.9073

EPHEMERIS_TYPE = 0
CLASSIFICATION_TYPE = U
NORAD_CAT_ID   = 68238
ELEMENT_SET_NO = 999
REV_AT_EPOCH   = 272
BSTAR          = .15547E-2
MEAN_MOTION_DOT = .31775E-2
MEAN_MOTION_DDOT = 0

CCSDS_OMM_VERS = 2.0
CREATION_DATE  = 
ORIGINATOR     = 

OBJECT_NAME    = STARLINK-37096
OBJECT_ID      = 2026-054H
CENTER_NAME    = EARTH
REF_FRAME      = TEME
TIME_SYSTEM    = UTC
MEAN_ELEMENT_THEORY = SGP/SGP4

EPOCH          = 2026-04-03T17:18:19.952064
MEAN_MOTION    = 15.80922737
ECCENTRICITY   = .0001027
INCLINATION    = 53.1586
RA_OF_ASC_NODE = 187.1577
ARG_OF_PERICENTER = 117.1065
MEAN_ANOMALY   = 243.0063

EPHEMERIS_TYPE = 0
CLASSIFICATION_TYPE = U
NORAD_CAT_ID   = 68239
ELEMENT_SET_NO = 999
REV_AT_EPOCH   = 273
BSTAR          = .15205E-2
MEAN_MOTION_DOT = .311187E-2
MEAN_MOTION_DDOT = 0

CCSDS_OMM_VERS = 2.0
CREATION_DATE  = 
ORIGINATOR     = 

OBJECT_NAME    = STARLINK-37092
OBJECT_ID      = 2026-054J
CENTER_NAME    = EARTH
REF_FRAME      = TEME
TIME_SYSTEM    = UTC
MEAN_ELEMENT_THEORY = SGP/SGP4

EPOCH          = 2026-04-03T20:00:01.999008
MEAN_MOTION    = 15.75286497
ECCENTRICITY   = .0001245
INCLINATION    = 53.1587
RA_OF_ASC_NODE = 186.6792
ARG_OF_PERICENTER = 46.0520
MEAN_ANOMALY   = 193.0123

EPHEMERIS_TYPE = 0
CLASSIFICATION_TYPE = U
NORAD_CAT_ID   = 68240
ELEMENT_SET_NO = 999
REV_AT_EPOCH   = 395
BSTAR          = .31908E-4
MEAN_MOTION_DOT = .4264E-4
MEAN_MOTION_DDOT = 0

CCSDS_OMM_VERS = 2.0
CREATION_DATE  = 
ORIGINATOR     = 

OBJECT_NAME    = STARLINK-37094
OBJECT_ID      = 2026-054K
CENTER_NAME    = EARTH
REF_FRAME      = TEME
TIME_SYSTEM    = UTC
MEAN_ELEMENT_THEORY = SGP/SGP4

EPOCH          = 2026-04-03T15:46:13.304352
MEAN_MOTION    = 15.80868791
ECCENTRICITY   = .0001463
INCLINATION    = 53.1586
RA_OF_ASC_NODE = 187.4697
ARG_OF_PERICENTER = 110.1106
MEAN_ANOMALY   = 250.0074

EPHEMERIS_TYPE = 0
CLASSIFICATION_TYPE = U
NORAD_CAT_ID   = 68241
ELEMENT_SET_NO = 999
REV_AT_EPOCH   = 272
BSTAR          = .13031E-2
MEAN_MOTION_DOT = .264473E-2
MEAN_MOTION_DDOT = 0

CCSDS_OMM_VERS = 2.0
CREATION_DATE  = 
ORIGINATOR     = 

OBJECT_NAME    = STARLINK-36356
OBJECT_ID      = 2026-054L
CENTER_NAME    = EARTH
REF_FRAME      = TEME
TIME_SYSTEM    = UTC
MEAN_ELEMENT_THEORY = SGP/SGP4

EPOCH          = 2026-04-03T20:00:01.999008
MEAN_MOTION    = 15.75174096
ECCENTRICITY   = .0001291
INCLINATION    = 53.1589
RA_OF_ASC_NODE = 186.7312
ARG_OF_PERICENTER = 52.7717
MEAN_ANOMALY   = 160.6436

EPHEMERIS_TYPE = 0
CLASSIFICATION_TYPE = U
NORAD_CAT_ID   = 68242
ELEMENT_SET_NO = 999
REV_AT_EPOCH   = 399
BSTAR          = .61234E-3
MEAN_MOTION_DOT = .94006E-3
MEAN_MOTION_DDOT = 0

CCSDS_OMM_VERS = 2.0
CREATION_DATE  = 
ORIGINATOR     = 

OBJECT_NAME    = STARLINK-36345
OBJECT_ID      = 2026-054M
CENTER_NAME    = EARTH
REF_FRAME      = TEME
TIME_SYSTEM    = UTC
MEAN_ELEMENT_THEORY = SGP/SGP4

EPOCH          = 2026-04-03T16:16:16.122432
MEAN_MOTION    = 15.75249497
ECCENTRICITY   = .000118
INCLINATION    = 53.1601
RA_OF_ASC_NODE = 187.6087
ARG_OF_PERICENTER = 100.4699
MEAN_ANOMALY   = 259.6454

EPHEMERIS_TYPE = 0
CLASSIFICATION_TYPE = U
NORAD_CAT_ID   = 68243
ELEMENT_SET_NO = 999
REV_AT_EPOCH   = 272
BSTAR          = .17994E-2
MEAN_MOTION_DOT = .284815E-2
MEAN_MOTION_DDOT = 0

