STARLINK-37027          
1 68232U 26054A   26093.61905384  .00203400  00000+0  13004-2 0  9992
2 68232  53.1600 187.9550 0000911 104.3714 255.7407 15.75220280  2716
STARLINK-37132          
1 68233U 26054B   26093.66309984  .00327094  00000+0  15977-2 0  9999
2 68233  53.1588 187.5100 0001316 122.4248 237.6902 15.80887613  2727
STARLINK-37101          
1 68234U 26054C   26093.83335647 -.00023108  00000+0 -14668-3 0  9992
2 68234  53.1592 186.7887 0001391  68.3734 117.3399 15.75284417  3954
STARLINK-36963          
1 68235U 26054D   26093.67829205  .00201522  00000+0  12888-2 0  9990
2 68235  53.1599 187.6117 0001148 123.3471 236.7660 15.75219713  2726
STARLINK-37127          
1 68236U 26054E   26093.68737003  .00224440  00000+0  14310-2 0  9992
2 68236  53.1593 187.6715 0001276  93.5904 266.5263 15.75218517  2727
STARLINK-37095          
1 68237U 26054F   26093.61938014  .00189527  00000+0  12145-2 0  9991
2 68237  53.1600 187.9567 0001177 112.7970 247.3175 15.75211220  2714
STARLINK-37097          
1 68238U 26054G   26093.65934845  .00317750  00000+0  15547-2 0  9994
2 68238  53.1583 187.4849 0001078  84.2073 275.9073 15.80875191  2724
STARLINK-37096          
1 68239U 26054H   26093.72106426  .00311187  00000+0  15205-2 0  9998
2 68239  53.1586 187.1577 0001027 117.1065 243.0063 15.80922737  2739
STARLINK-37092          
1 68240U 26054J   26093.83335647  .00004264  00000+0  31908-4 0  9996
2 68240  53.1587 186.6792 0001245  46.0520 193.0123 15.75286497  3959
STARLINK-37094          
1 68241U 26054K   26093.65709843  .00264473  00000+0  13031-2 0  9995
2 68241  53.1586 187.4697 0001463 110.1106 250.0074 15.80868791  2729
STARLINK-36356          
1 68242U 26054L   26093.83335647  .00094006  00000+0  61234-3 0  9995
2 68242  53.1589 186.7312 0001291  52.7717 160.6436 15.75174096  3997
STARLINK-36345          
1 68243U 26054M   26093.67796438  .00284815  00000+0  17994-2 0  9999
2 68243  53.1601 187.6087 0001180 100.4699 259.6454 15.75249497  2726
